MALLIGYONG-1            
1 58400U 23179A   24212.52606981  .00008786  00000+0  39120-3 0  9993
2 58400  97.3982  98.6409 0003287  71.3345 288.8247 15.21688209 38312
